CCSDS_OMM_VERS = 2.0
CREATION_DATE  = 
ORIGINATOR     = 

OBJECT_NAME    = STARLINK-35559
OBJECT_ID      = 2025-236K
CENTER_NAME    = EARTH
REF_FRAME      = TEME
TIME_SYSTEM    = UTC
MEAN_ELEMENT_THEORY = SGP/SGP4

EPOCH          = 2025-11-01T13:53:04.482240
MEAN_MOTION    = 15.80661531
ECCENTRICITY   = .00179311
INCLINATION    = 53.1572
RA_OF_ASC_NODE = 344.4273
ARG_OF_PERICENTER = 330.5328
MEAN_ANOMALY   = 29.4682

EPHEMERIS_TYPE = 0
CLASSIFICATION_TYPE = U
NORAD_CAT_ID   = 66095
ELEMENT_SET_NO = 999
REV_AT_EPOCH   = 325
BSTAR          = .20700944E-1
MEAN_MOTION_DOT = .486756E-1
MEAN_MOTION_DDOT = 0

CCSDS_OMM_VERS = 2.0
CREATION_DATE  = 
ORIGINATOR     = 

OBJECT_NAME    = STARLINK-34386
OBJECT_ID      = 2025-236L
CENTER_NAME    = EARTH
REF_FRAME      = TEME
TIME_SYSTEM    = UTC
MEAN_ELEMENT_THEORY = SGP/SGP4

EPOCH          = 2025-11-01T15:24:33.234048
MEAN_MOTION    = 15.76316427
ECCENTRICITY   = .00030837
INCLINATION    = 53.1574
RA_OF_ASC_NODE = 344.1153
ARG_OF_PERICENTER = 8.3170
MEAN_ANOMALY   = 351.7901

EPHEMERIS_TYPE = 0
CLASSIFICATION_TYPE = U
NORAD_CAT_ID   = 66096
ELEMENT_SET_NO = 999
REV_AT_EPOCH   = 326
BSTAR          = -.46280452E-2
MEAN_MOTION_DOT = -.687624E-2
MEAN_MOTION_DDOT = 0

CCSDS_OMM_VERS = 2.0
CREATION_DATE  = 
ORIGINATOR     = 

OBJECT_NAME    = STARLINK-35613
OBJECT_ID      = 2025-236M
CENTER_NAME    = EARTH
REF_FRAME      = TEME
TIME_SYSTEM    = UTC
MEAN_ELEMENT_THEORY = SGP/SGP4

EPOCH          = 2025-11-01T13:52:09.873984
MEAN_MOTION    = 15.76993061
ECCENTRICITY   = .00009709
INCLINATION    = 53.1572
RA_OF_ASC_NODE = 344.4233
ARG_OF_PERICENTER = 64.6606
MEAN_ANOMALY   = 295.4516

EPHEMERIS_TYPE = 0
CLASSIFICATION_TYPE = U
NORAD_CAT_ID   = 66097
ELEMENT_SET_NO = 999
REV_AT_EPOCH   = 325
BSTAR          = -.11820153E-3
MEAN_MOTION_DOT = -.20183E-3
MEAN_MOTION_DDOT = 0

CCSDS_OMM_VERS = 2.0
CREATION_DATE  = 
ORIGINATOR     = 

OBJECT_NAME    = STARLINK-34206
OBJECT_ID      = 2025-236N
CENTER_NAME    = EARTH
REF_FRAME      = TEME
TIME_SYSTEM    = UTC
MEAN_ELEMENT_THEORY = SGP/SGP4

EPOCH          = 2025-11-01T09:17:19.665024
MEAN_MOTION    = 15.79845985
ECCENTRICITY   = .00117676
INCLINATION    = 53.1579
RA_OF_ASC_NODE = 345.3647
ARG_OF_PERICENTER = 181.1226
MEAN_ANOMALY   = 178.9772

EPHEMERIS_TYPE = 0
CLASSIFICATION_TYPE = U
NORAD_CAT_ID   = 66098
ELEMENT_SET_NO = 999
REV_AT_EPOCH   = 321
BSTAR          = .11603451E-1
MEAN_MOTION_DOT = .2554906E-1
MEAN_MOTION_DDOT = 0

CCSDS_OMM_VERS = 2.0
CREATION_DATE  = 
ORIGINATOR     = 

OBJECT_NAME    = STARLINK-34460
OBJECT_ID      = 2025-236P
CENTER_NAME    = EARTH
REF_FRAME      = TEME
TIME_SYSTEM    = UTC
MEAN_ELEMENT_THEORY = SGP/SGP4

EPOCH          = 2025-11-01T13:52:44.268096
MEAN_MOTION    = 15.76497019
ECCENTRICITY   = .00008925
INCLINATION    = 53.1572
RA_OF_ASC_NODE = 344.4262
ARG_OF_PERICENTER = 80.9594
MEAN_ANOMALY   = 279.1527

EPHEMERIS_TYPE = 0
CLASSIFICATION_TYPE = U
NORAD_CAT_ID   = 66099
ELEMENT_SET_NO = 999
REV_AT_EPOCH   = 325
BSTAR          = -.4668908E-2
MEAN_MOTION_DOT = -.697855E-2
MEAN_MOTION_DDOT = 0

CCSDS_OMM_VERS = 2.0
CREATION_DATE  = 
ORIGINATOR     = 

OBJECT_NAME    = STARLINK-35609
OBJECT_ID      = 2025-236Q
CENTER_NAME    = EARTH
REF_FRAME      = TEME
TIME_SYSTEM    = UTC
MEAN_ELEMENT_THEORY = SGP/SGP4

EPOCH          = 2025-11-01T09:16:46.179840
MEAN_MOTION    = 15.79856188
ECCENTRICITY   = .00122258
INCLINATION    = 53.1574
RA_OF_ASC_NODE = 345.3615
ARG_OF_PERICENTER = 178.0472
MEAN_ANOMALY   = 182.0600

EPHEMERIS_TYPE = 0
CLASSIFICATION_TYPE = U
NORAD_CAT_ID   = 66100
ELEMENT_SET_NO = 999
REV_AT_EPOCH   = 316
BSTAR          = .11954864E-1
MEAN_MOTION_DOT = .2648628E-1
MEAN_MOTION_DDOT = 0

CCSDS_OMM_VERS = 2.0
CREATION_DATE  = 
ORIGINATOR     = 

OBJECT_NAME    = STARLINK-35595
OBJECT_ID      = 2025-236R
CENTER_NAME    = EARTH
REF_FRAME      = TEME
TIME_SYSTEM    = UTC
MEAN_ELEMENT_THEORY = SGP/SGP4

EPOCH          = 2025-11-01T09:16:14.762208
MEAN_MOTION    = 15.79534004
ECCENTRICITY   = .00102766
INCLINATION    = 53.1570
RA_OF_ASC_NODE = 345.3604
ARG_OF_PERICENTER = 181.3884
MEAN_ANOMALY   = 178.7111

EPHEMERIS_TYPE = 0
CLASSIFICATION_TYPE = U
NORAD_CAT_ID   = 66101
ELEMENT_SET_NO = 999
REV_AT_EPOCH   = 316
BSTAR          = .10833788E-1
MEAN_MOTION_DOT = .2317943E-1
MEAN_MOTION_DDOT = 0

CCSDS_OMM_VERS = 2.0
CREATION_DATE  = 
ORIGINATOR     = 

OBJECT_NAME    = STARLINK-35599
OBJECT_ID      = 2025-236S
CENTER_NAME    = EARTH
REF_FRAME      = TEME
TIME_SYSTEM    = UTC
MEAN_ELEMENT_THEORY = SGP/SGP4

EPOCH          = 2025-11-01T12:18:23.310720
MEAN_MOTION    = 15.79812451
ECCENTRICITY   = .00189259
INCLINATION    = 53.1566
RA_OF_ASC_NODE = 344.7271
ARG_OF_PERICENTER = 314.6731
MEAN_ANOMALY   = 45.2749

EPHEMERIS_TYPE = 0
CLASSIFICATION_TYPE = U
NORAD_CAT_ID   = 66102
ELEMENT_SET_NO = 999
REV_AT_EPOCH   = 318
BSTAR          = .23130601E-1
MEAN_MOTION_DOT = .5322142E-1
MEAN_MOTION_DDOT = 0

CCSDS_OMM_VERS = 2.0
CREATION_DATE  = 
ORIGINATOR     = 

OBJECT_NAME    = STARLINK-35622
OBJECT_ID      = 2025-236T
CENTER_NAME    = EARTH
REF_FRAME      = TEME
TIME_SYSTEM    = UTC
MEAN_ELEMENT_THEORY = SGP/SGP4

EPOCH          = 2025-11-01T09:14:41.061408
MEAN_MOTION    = 15.79261543
ECCENTRICITY   = .00107906
INCLINATION    = 53.1564
RA_OF_ASC_NODE = 345.3534
ARG_OF_PERICENTER = 178.7744
MEAN_ANOMALY   = 181.3307

EPHEMERIS_TYPE = 0
CLASSIFICATION_TYPE = U
NORAD_CAT_ID   = 66103
ELEMENT_SET_NO = 999
REV_AT_EPOCH   = 322
BSTAR          = .97390678E-2
MEAN_MOTION_DOT = .2073799E-1
MEAN_MOTION_DDOT = 0

CCSDS_OMM_VERS = 2.0
CREATION_DATE  = 
ORIGINATOR     = 

OBJECT_NAME    = STARLINK-35452
OBJECT_ID      = 2025-236U
CENTER_NAME    = EARTH
REF_FRAME      = TEME
TIME_SYSTEM    = UTC
MEAN_ELEMENT_THEORY = SGP/SGP4

EPOCH          = 2025-11-01T15:19:56.048160
MEAN_MOTION    = 15.76976428
ECCENTRICITY   = .00155606
INCLINATION    = 53.1576
RA_OF_ASC_NODE = 344.0862
ARG_OF_PERICENTER = 177.5531
MEAN_ANOMALY   = 182.5569

EPHEMERIS_TYPE = 0
CLASSIFICATION_TYPE = U
NORAD_CAT_ID   = 66104
ELEMENT_SET_NO = 999
REV_AT_EPOCH   = 326
BSTAR          = -.23645168E-1
MEAN_MOTION_DOT = -.3321375E-1
MEAN_MOTION_DDOT = 0

CCSDS_OMM_VERS = 2.0
CREATION_DATE  = 
ORIGINATOR     = 

OBJECT_NAME    = STARLINK-35561
OBJECT_ID      = 2025-236V
CENTER_NAME    = EARTH
REF_FRAME      = TEME
TIME_SYSTEM    = UTC
MEAN_ELEMENT_THEORY = SGP/SGP4

EPOCH          = 2025-11-01T09:14:10.773888
MEAN_MOTION    = 15.79285732
ECCENTRICITY   = .00109801
INCLINATION    = 53.1567
RA_OF_ASC_NODE = 345.3497
ARG_OF_PERICENTER = 177.6966
MEAN_ANOMALY   = 182.4109

EPHEMERIS_TYPE = 0
CLASSIFICATION_TYPE = U
NORAD_CAT_ID   = 66105
ELEMENT_SET_NO = 999
REV_AT_EPOCH   = 316
BSTAR          = .10207626E-1
MEAN_MOTION_DOT = .2136798E-1
MEAN_MOTION_DDOT = 0

CCSDS_OMM_VERS = 2.0
CREATION_DATE  = 
ORIGINATOR     = 

OBJECT_NAME    = STARLINK-35584
OBJECT_ID      = 2025-236W
CENTER_NAME    = EARTH
REF_FRAME      = TEME
TIME_SYSTEM    = UTC
MEAN_ELEMENT_THEORY = SGP/SGP4

EPOCH          = 2025-11-01T12:16:19.980768
MEAN_MOTION    = 15.78243546
ECCENTRICITY   = .00110666
INCLINATION    = 53.1562
RA_OF_ASC_NODE = 344.7175
ARG_OF_PERICENTER = 335.2826
MEAN_ANOMALY   = 24.7664

EPHEMERIS_TYPE = 0
CLASSIFICATION_TYPE = U
NORAD_CAT_ID   = 66106
ELEMENT_SET_NO = 999
REV_AT_EPOCH   = 324
BSTAR          = .45329102E-2
MEAN_MOTION_DOT = .881403E-2
MEAN_MOTION_DDOT = 0

