STARLINK-35559          
1 66095U 25236K   25305.57852410  .04867560  00000+0  20701-1 0  9997
2 66095  53.1572 344.4273 0017931 330.5328  29.4682 15.80661531  3250
STARLINK-34386          
1 66096U 25236L   25305.64205132 -.00687624  00000+0 -46280-2 0  9999
2 66096  53.1574 344.1153 0003083   8.3170 351.7901 15.76316427  3267
STARLINK-35613          
1 66097U 25236M   25305.57789206 -.00020183  00000+0 -11820-3 0  9995
2 66097  53.1572 344.4233 0000970  64.6606 295.4516 15.76993061  3259
STARLINK-34206          
1 66098U 25236N   25305.38703316  .02554906  00000+0  11603-1 0  9995
2 66098  53.1579 345.3647 0011767 181.1226 178.9772 15.79845985  3214
STARLINK-34460          
1 66099U 25236P   25305.57829014 -.00697855  00000+0 -46689-2 0  9995
2 66099  53.1572 344.4262 0000892  80.9594 279.1527 15.76497019  3256
STARLINK-35609          
1 66100U 25236Q   25305.38664560  .02648628  00000+0  11955-1 0  9991
2 66100  53.1574 345.3615 0012225 178.0472 182.0600 15.79856188  3163
STARLINK-35595          
1 66101U 25236R   25305.38628197  .02317943  00000+0  10834-1 0  9996
2 66101  53.1570 345.3604 0010276 181.3884 178.7111 15.79534004  3165
STARLINK-35599          
1 66102U 25236S   25305.51276980  .05322142  00000+0  23131-1 0  9995
2 66102  53.1566 344.7271 0018925 314.6731  45.2749 15.79812451  3187
STARLINK-35622          
1 66103U 25236T   25305.38519747  .02073799  00000+0  97391-2 0  9990
2 66103  53.1564 345.3534 0010790 178.7744 181.3307 15.79261543  3227
STARLINK-35452          
1 66104U 25236U   25305.63884315 -.03321375  00000+0 -23645-1 0  9994
2 66104  53.1576 344.0862 0015560 177.5531 182.5569 15.76976428  3261
STARLINK-35561          
1 66105U 25236V   25305.38484692  .02136798  00000+0  10208-1 0  9992
2 66105  53.1567 345.3497 0010980 177.6966 182.4109 15.79285732  3166
STARLINK-35584          
1 66106U 25236W   25305.51134237  .00881403  00000+0  45329-2 0  9996
2 66106  53.1562 344.7175 0011066 335.2826  24.7664 15.78243546  3240
